{"fetched_at":"2026-07-23T07:05:18.920Z","source":"https://celestrak.org/NORAD/elements/gp.php?GROUP=oneweb&FORMAT=JSON","constellation":"oneweb","records":[{"OBJECT_NAME":"ONEWEB-0320","OBJECT_ID":"2021-083E","EPOCH":"2026-07-22T14:18:57.691584","CLASSIFICATION_TYPE":"U","MEAN_MOTION":13.1868531,"ECCENTRICITY":0.00019768,"INCLINATION":87.9193,"RA_OF_ASC_NODE":328.4203,"ARG_OF_PERICENTER":99.2892,"MEAN_ANOMALY":260.8464,"EPHEMERIS_TYPE":0,"NORAD_CAT_ID":49190,"ELEMENT_SET_NO":999,"REV_AT_EPOCH":23464,"BSTAR":0.00024173654,"MEAN_MOTION_DOT":0.00000108,"MEAN_MOTION_DDOT":0},{"OBJECT_NAME":"ONEWEB-0321","OBJECT_ID":"2021-083F","EPOCH":"2026-07-22T21:10:47.182656","CLASSIFICATION_TYPE":"U","MEAN_MOTION":13.20770878,"ECCENTRICITY":0.00021767,"INCLINATION":87.9178,"RA_OF_ASC_NODE":267.3217,"ARG_OF_PERICENTER":102.4136,"MEAN_ANOMALY":257.7242,"EPHEMERIS_TYPE":0,"NORAD_CAT_ID":49191,"ELEMENT_SET_NO":999,"REV_AT_EPOCH":24154,"BSTAR":-0.000049240119,"MEAN_MOTION_DOT":-7e-8,"MEAN_MOTION_DDOT":0},{"OBJECT_NAME":"ONEWEB-0322","OBJECT_ID":"2021-083G","EPOCH":"2026-07-22T17:31:41.160000","CLASSIFICATION_TYPE":"U","MEAN_MOTION":13.13470857,"ECCENTRICITY":0.00021805,"INCLINATION":87.8978,"RA_OF_ASC_NODE":313.1631,"ARG_OF_PERICENTER":111.0153,"MEAN_ANOMALY":249.1209,"EPHEMERIS_TYPE":0,"NORAD_CAT_ID":49192,"ELEMENT_SET_NO":999,"REV_AT_EPOCH":23558,"BSTAR":-0.00057773413,"MEAN_MOTION_DOT":-0.00000198,"MEAN_MOTION_DDOT":0},{"OBJECT_NAME":"ONEWEB-0324","OBJECT_ID":"2021-083H","EPOCH":"2026-07-22T19:07:54.834816","CLASSIFICATION_TYPE":"U","MEAN_MOTION":13.18687344,"ECCENTRICITY":0.00020087,"INCLINATION":87.9205,"RA_OF_ASC_NODE":328.3714,"ARG_OF_PERICENTER":95.2585,"MEAN_ANOMALY":264.8776,"EPHEMERIS_TYPE":0,"NORAD_CAT_ID":49193,"ELEMENT_SET_NO":999,"REV_AT_EPOCH":23469,"BSTAR":-0.000057214694,"MEAN_MOTION_DOT":-1e-7,"MEAN_MOTION_DDOT":0},{"OBJECT_NAME":"ONEWEB-0325","OBJECT_ID":"2021-083J","EPOCH":"2026-07-22T19:12:45.101664","CLASSIFICATION_TYPE":"U","MEAN_MOTION":13.1868772,"ECCENTRICITY":0.00018203,"INCLINATION":87.9196,"RA_OF_ASC_NODE":328.3757,"ARG_OF_PERICENTER":100.6795,"MEAN_ANOMALY":259.4542,"EPHEMERIS_TYPE":0,"NORAD_CAT_ID":49194,"ELEMENT_SET_NO":999,"REV_AT_EPOCH":23470,"BSTAR":-0.000097550679,"MEAN_MOTION_DOT":-2.6e-7,"MEAN_MOTION_DDOT":0},{"OBJECT_NAME":"ONEWEB-0326","OBJECT_ID":"2021-083K","EPOCH":"2026-07-22T17:45:34.546752","CLASSIFICATION_TYPE":"U","MEAN_MOTION":13.18686875,"ECCENTRICITY":0.0001624,"INCLINATION":87.9204,"RA_OF_ASC_NODE":328.3882,"ARG_OF_PERICENTER":95.6119,"MEAN_ANOMALY":264.5198,"EPHEMERIS_TYPE":0,"NORAD_CAT_ID":49195,"ELEMENT_SET_NO":999,"REV_AT_EPOCH":23468,"BSTAR":0.000030641172,"MEAN_MOTION_DOT":2.5e-7,"MEAN_MOTION_DDOT":0},{"OBJECT_NAME":"ONEWEB-0327","OBJECT_ID":"2021-083L","EPOCH":"2026-07-22T19:34:26.194080","CLASSIFICATION_TYPE":"U","MEAN_MOTION":13.1868646,"ECCENTRICITY":0.00014973,"INCLINATION":87.9194,"RA_OF_ASC_NODE":328.3747,"ARG_OF_PERICENTER":101.3455,"MEAN_ANOMALY":258.7846,"EPHEMERIS_TYPE":0,"NORAD_CAT_ID":49196,"ELEMENT_SET_NO":999,"REV_AT_EPOCH":23471,"BSTAR":-0.0001435608,"MEAN_MOTION_DOT":-4.4e-7,"MEAN_MOTION_DDOT":0},{"OBJECT_NAME":"ONEWEB-0328","OBJECT_ID":"2021-083M","EPOCH":"2026-07-22T17:17:03.567552","CLASSIFICATION_TYPE":"U","MEAN_MOTION":13.13470308,"ECCENTRICITY":0.00020233,"INCLINATION":87.8991,"RA_OF_ASC_NODE":313.1415,"ARG_OF_PERICENTER":96.6799,"MEAN_ANOMALY":263.4561,"EPHEMERIS_TYPE":0,"NORAD_CAT_ID":49197,"ELEMENT_SET_NO":999,"REV_AT_EPOCH":23556,"BSTAR":-0.00084959646,"MEAN_MOTION_DOT":-0.00000297,"MEAN_MOTION_DDOT":0},{"OBJECT_NAME":"ONEWEB-0331","OBJECT_ID":"2021-083N","EPOCH":"2026-07-22T19:24:54.859392","CLASSIFICATION_TYPE":"U","MEAN_MOTION":13.18686352,"ECCENTRICITY":0.00016218,"INCLINATION":87.9204,"RA_OF_ASC_NODE":328.3685,"ARG_OF_PERICENTER":92.3916,"MEAN_ANOMALY":267.7402,"EPHEMERIS_TYPE":0,"NORAD_CAT_ID":49198,"ELEMENT_SET_NO":999,"REV_AT_EPOCH":23470,"BSTAR":0.000032420015,"MEAN_MOTION_DOT":2.6e-7,"MEAN_MOTION_DDOT":0},{"OBJECT_NAME":"ONEWEB-0333","OBJECT_ID":"2021-083P","EPOCH":"2026-07-22T17:09:44.769600","CLASSIFICATION_TYPE":"U","MEAN_MOTION":13.13469758,"ECCENTRICITY":0.00019201,"INCLINATION":87.8981,"RA_OF_ASC_NODE":313.1655,"ARG_OF_PERICENTER":101.1642,"MEAN_ANOMALY":258.9703,"EPHEMERIS_TYPE":0,"NORAD_CAT_ID":49199,"ELEMENT_SET_NO":999,"REV_AT_EPOCH":23557,"BSTAR":-0.00086788371,"MEAN_MOTION_DOT":-0.00000304,"MEAN_MOTION_DDOT":0},{"OBJECT_NAME":"ONEWEB-0334","OBJECT_ID":"2021-083Q","EPOCH":"2026-07-22T14:15:01.997568","CLASSIFICATION_TYPE":"U","MEAN_MOTION":13.20769724,"ECCENTRICITY":0.00026424,"INCLINATION":87.9176,"RA_OF_ASC_NODE":267.3892,"ARG_OF_PERICENTER":111.6341,"MEAN_ANOMALY":248.5074,"EPHEMERIS_TYPE":0,"NORAD_CAT_ID":49200,"ELEMENT_SET_NO":999,"REV_AT_EPOCH":24146,"BSTAR":0.000091596225,"MEAN_MOTION_DOT":5e-7,"MEAN_MOTION_DDOT":0},{"OBJECT_NAME":"ONEWEB-0335","OBJECT_ID":"2021-083R","EPOCH":"2026-07-22T07:53:57.430752","CLASSIFICATION_TYPE":"U","MEAN_MOTION":13.13469494,"ECCENTRICITY":0.00018194,"INCLINATION":87.898,"RA_OF_ASC_NODE":313.2393,"ARG_OF_PERICENTER":96.6593,"MEAN_ANOMALY":263.4744,"EPHEMERIS_TYPE":0,"NORAD_CAT_ID":49201,"ELEMENT_SET_NO":999,"REV_AT_EPOCH":23553,"BSTAR":-0.00064641635,"MEAN_MOTION_DOT":-0.00000223,"MEAN_MOTION_DDOT":0},{"OBJECT_NAME":"ONEWEB-0336","OBJECT_ID":"2021-083S","EPOCH":"2026-07-22T18:10:41.804256","CLASSIFICATION_TYPE":"U","MEAN_MOTION":13.13468988,"ECCENTRICITY":0.00017505,"INCLINATION":87.8977,"RA_OF_ASC_NODE":313.1495,"ARG_OF_PERICENTER":93.2083,"MEAN_ANOMALY":266.9247,"EPHEMERIS_TYPE":0,"NORAD_CAT_ID":49202,"ELEMENT_SET_NO":999,"REV_AT_EPOCH":23558,"BSTAR":0.00088906026,"MEAN_MOTION_DOT":0.00000337,"MEAN_MOTION_DDOT":0},{"OBJECT_NAME":"ONEWEB-0337","OBJECT_ID":"2021-083T","EPOCH":"2026-07-22T12:56:02.835744","CLASSIFICATION_TYPE":"U","MEAN_MOTION":13.13469409,"ECCENTRICITY":0.00019744,"INCLINATION":87.898,"RA_OF_ASC_NODE":313.1986,"ARG_OF_PERICENTER":93.6277,"MEAN_ANOMALY":266.5078,"EPHEMERIS_TYPE":0,"NORAD_CAT_ID":49203,"ELEMENT_SET_NO":999,"REV_AT_EPOCH":23555,"BSTAR":0.0005767988,"MEAN_MOTION_DOT":0.00000223,"MEAN_MOTION_DDOT":0},{"OBJECT_NAME":"ONEWEB-0338","OBJECT_ID":"2021-083U","EPOCH":"2026-07-22T04:36:50.985792","CLASSIFICATION_TYPE":"U","MEAN_MOTION":13.20771086,"ECCENTRICITY":0.00021901,"INCLINATION":87.9175,"RA_OF_ASC_NODE":267.4709,"ARG_OF_PERICENTER":105.4506,"MEAN_ANOMALY":254.6869,"EPHEMERIS_TYPE":0,"NORAD_CAT_ID":49204,"ELEMENT_SET_NO":999,"REV_AT_EPOCH":24143,"BSTAR":0.000057972218,"MEAN_MOTION_DOT":3.7e-7,"MEAN_MOTION_DDOT":0},{"OBJECT_NAME":"ONEWEB-0339","OBJECT_ID":"2021-083V","EPOCH":"2026-07-22T16:47:48.792192","CLASSIFICATION_TYPE":"U","MEAN_MOTION":13.1346886,"ECCENTRICITY":0.00021958,"INCLINATION":87.8982,"RA_OF_ASC_NODE":313.1601,"ARG_OF_PERICENTER":104.0692,"MEAN_ANOMALY":256.0682,"EPHEMERIS_TYPE":0,"NORAD_CAT_ID":49205,"ELEMENT_SET_NO":999,"REV_AT_EPOCH":23555,"BSTAR":-0.000084575859,"MEAN_MOTION_DOT":-1.8e-7,"MEAN_MOTION_DDOT":0}]}
